start=new Date('2023-06-16T00:00:00.000Z').valueOf();
sats=[{"OBJECT_ID":"2021-005BC","GP_ID":"233994273","PERIOD":"95.592","MEAN_MOTION_DOT":"0.00003039","INCLINATION":"53.0518","CLASSIFICATION_TYPE":"U","ECCENTRICITY":"0.00010040","OBJECT_NAME":"STARLINK-2121","APOAPSIS":"547.893","CENTER_NAME":"EARTH","SITE":"AFETR","TLE_LINE2":"2 47399  53.0518 202.9191 0001004  76.0796 284.0304 15.06405158132866","EPHEMERIS_TYPE":"0","MEAN_MOTION":"15.06405158","RA_OF_ASC_NODE":"202.9191","BSTAR":"0.00022281000000","OBJECT_TYPE":"PAYLOAD","SEMIMAJOR_AXIS":"6925.333","NORAD_CAT_ID":"47399","MEAN_MOTION_DDOT":"0.0000000000000","RCS_SIZE":"LARGE","COUNTRY_CODE":"US","MEAN_ELEMENT_THEORY":"SGP4","MEAN_ANOMALY":"284.0304","LAUNCH_DATE":"2021-01-20","DECAY_DATE":null,"EPOCH":"2023-06-15T11:56:49.427520","FILE":"3933934","REV_AT_EPOCH":"13286","PERIAPSIS":"546.502","ARG_OF_PERICENTER":"76.0796","ELEMENT_SET_NO":"999","REF_FRAME":"TEME","TIME_SYSTEM":"UTC","TLE_LINE1":"1 47399U 21005BC  23166.49779430  .00003039  00000-0  22281-3 0  9994"},{"OBJECT_NAME":"STARLINK-2122","ECCENTRICITY":"0.00011490","CLASSIFICATION_TYPE":"U","INCLINATION":"53.0537","MEAN_MOTION_DOT":"0.00000624","PERIOD":"95.592","GP_ID":"233984542","OBJECT_ID":"2021-005BD","SEMIMAJOR_AXIS":"6925.341","OBJECT_TYPE":"PAYLOAD","BSTAR":"0.00006074500000","MEAN_MOTION":"15.06402619","RA_OF_ASC_NODE":"182.8594","EPHEMERIS_TYPE":"0","TLE_LINE2":"2 47400  53.0537 182.8594 0001149  90.5700 269.5421 15.06402619133148","SITE":"AFETR","APOAPSIS":"548.001","CENTER_NAME":"EARTH","FILE":"3933820","EPOCH":"2023-06-15T11:01:02.800416","LAUNCH_DATE":"2021-01-20","DECAY_DATE":null,"MEAN_ELEMENT_THEORY":"SGP4","MEAN_ANOMALY":"269.5421","COUNTRY_CODE":"US","RCS_SIZE":"LARGE","MEAN_MOTION_DDOT":"0.0000000000000","NORAD_CAT_ID":"47400","TLE_LINE1":"1 47400U 21005BD  23166.45906019  .00000624  00000-0  60745-4 0  9993","TIME_SYSTEM":"UTC","REF_FRAME":"TEME","ARG_OF_PERICENTER":"90.5700","ELEMENT_SET_NO":"999","REV_AT_EPOCH":"13314","PERIAPSIS":"546.410"},{"COUNTRY_CODE":"US","NORAD_CAT_ID":"47401","MEAN_MOTION_DDOT":"0.0000000000000","RCS_SIZE":"LARGE","LAUNCH_DATE":"2021-01-20","DECAY_DATE":null,"EPOCH":"2023-06-15T08:15:11.496384","FILE":"3933820","MEAN_ELEMENT_THEORY":"SGP4","MEAN_ANOMALY":"275.5352","ELEMENT_SET_NO":"999","ARG_OF_PERICENTER":"84.5756","PERIAPSIS":"546.492","REV_AT_EPOCH":"13299","TIME_SYSTEM":"UTC","TLE_LINE1":"1 47401U 21005BE  23166.34388306  .00000877  00000-0  77766-4 0  9996","REF_FRAME":"TEME","PERIOD":"95.592","INCLINATION":"53.0525","MEAN_MOTION_DOT":"0.00000877","OBJECT_ID":"2021-005BE","GP_ID":"233984292","CLASSIFICATION_TYPE":"U","ECCENTRICITY":"0.00010450","OBJECT_NAME":"STARLINK-2123","CENTER_NAME":"EARTH","APOAPSIS":"547.939","SITE":"AFETR","BSTAR":"0.00007776600000","OBJECT_TYPE":"PAYLOAD","SEMIMAJOR_AXIS":"6925.351","EPHEMERIS_TYPE":"0","TLE_LINE2":"2 47401  53.0525 193.3647 0001045  84.5756 275.5352 15.06399306132991","RA_OF_ASC_NODE":"193.3647","MEAN_MOTION":"15.06399306"},{"TIME_SYSTEM":"UTC","TLE_LINE1":"1 47402U 21005BF  23166.76038716  .00000239  00000-0  34959-4 0  9999","REF_FRAME":"TEME","ARG_OF_PERICENTER":"110.1820","ELEMENT_SET_NO":"999","REV_AT_EPOCH":"13305","PERIAPSIS":"546.526","LAUNCH_DATE":"2021-01-20","DECAY_DATE":null,"EPOCH":"2023-06-15T18:14:57.450624","FILE":"3934071","MEAN_ANOMALY":"249.9277","MEAN_ELEMENT_THEORY":"SGP4","COUNTRY_CODE":"US","NORAD_CAT_ID":"47402","RCS_SIZE":"LARGE","MEAN_MOTION_DDOT":"0.0000000000000","BSTAR":"0.00003495900000","OBJECT_TYPE":"PAYLOAD","SEMIMAJOR_AXIS":"6925.354","TLE_LINE2":"2 47402  53.0536 191.4957 0001001 110.1820 249.9277 15.06398160133053","EPHEMERIS_TYPE":"0","MEAN_MOTION":"15.06398160","RA_OF_ASC_NODE":"191.4957","APOAPSIS":"547.912","CENTER_NAME":"EARTH","SITE":"AFETR","CLASSIFICATION_TYPE":"U","OBJECT_NAME":"STARLINK-2124","ECCENTRICITY":"0.00010010","PERIOD":"95.592","MEAN_MOTION_DOT":"0.00000239","INCLINATION":"53.0536","OBJECT_ID":"2021-005BF","GP_ID":"234017014"},{"SITE":"AFETR","APOAPSIS":"547.924","CENTER_NAME":"EARTH","SEMIMAJOR_AXIS":"6925.353","OBJECT_TYPE":"PAYLOAD","BSTAR":"0.00002706300000","MEAN_MOTION":"15.06398537","RA_OF_ASC_NODE":"191.4662","TLE_LINE2":"2 47403  53.0536 191.4662 0001019  85.2999 274.8106 15.06398537133051","EPHEMERIS_TYPE":"0","INCLINATION":"53.0536","MEAN_MOTION_DOT":"0.00000122","PERIOD":"95.592","GP_ID":"234017763","OBJECT_ID":"2021-005BG","OBJECT_NAME":"STARLINK-2127","ECCENTRICITY":"0.00010190","CLASSIFICATION_TYPE":"U","ARG_OF_PERICENTER":"85.2999","ELEMENT_SET_NO":"999","REV_AT_EPOCH":"13305","PERIAPSIS":"546.512","TLE_LINE1":"1 47403U 21005BG  23166.76776274  .00000122  00000-0  27063-4 0  9997","TIME_SYSTEM":"UTC","REF_FRAME":"TEME","COUNTRY_CODE":"US","MEAN_MOTION_DDOT":"0.0000000000000","RCS_SIZE":"LARGE","NORAD_CAT_ID":"47403","EPOCH":"2023-06-15T18:25:34.700736","FILE":"3934071","LAUNCH_DATE":"2021-01-20","DECAY_DATE":null,"MEAN_ELEMENT_THEORY":"SGP4","MEAN_ANOMALY":"274.8106"},{"ELEMENT_SET_NO":"999","ARG_OF_PERICENTER":"91.2838","PERIAPSIS":"546.421","REV_AT_EPOCH":"13305","TLE_LINE1":"1 47404U 21005BH  23166.76407594  .00000017  00000-0  20055-4 0  9991","TIME_SYSTEM":"UTC","REF_FRAME":"TEME","COUNTRY_CODE":"US","RCS_SIZE":"LARGE","MEAN_MOTION_DDOT":"0.0000000000000","NORAD_CAT_ID":"47404","FILE":"3934071","EPOCH":"2023-06-15T18:20:16.161216","LAUNCH_DATE":"2021-01-20","DECAY_DATE":null,"MEAN_ELEMENT_THEORY":"SGP4","MEAN_ANOMALY":"268.8281","SITE":"AFETR","APOAPSIS":"548.003","CENTER_NAME":"EARTH","SEMIMAJOR_AXIS":"6925.347","BSTAR":"0.00002005500000","OBJECT_TYPE":"PAYLOAD","RA_OF_ASC_NODE":"191.4834","MEAN_MOTION":"15.06400582","EPHEMERIS_TYPE":"0","TLE_LINE2":"2 47404  53.0544 191.4834 0001142  91.2838 268.8281 15.06400582133059","INCLINATION":"53.0544","MEAN_MOTION_DOT":"0.00000017","PERIOD":"95.592","GP_ID":"234018003","OBJECT_ID":"2021-005BH","ECCENTRICITY":"0.00011420","OBJECT_NAME":"STARLINK-2128","CLASSIFICATION_TYPE":"U"},{"REF_FRAME":"TEME","TLE_LINE1":"1 47405U 21005BJ  23166.48118207  .00008239  00000-0  57123-3 0  9990","TIME_SYSTEM":"UTC","REV_AT_EPOCH":"13258","PERIAPSIS":"546.609","ARG_OF_PERICENTER":"76.6984","ELEMENT_SET_NO":"999","MEAN_ANOMALY":"283.4099","MEAN_ELEMENT_THEORY":"SGP4","FILE":"3933820","EPOCH":"2023-06-15T11:32:54.130848","LAUNCH_DATE":"2021-01-20","DECAY_DATE":null,"RCS_SIZE":"LARGE","MEAN_MOTION_DDOT":"0.0000000000000","NORAD_CAT_ID":"47405","COUNTRY_CODE":"US","MEAN_MOTION":"15.06406578","RA_OF_ASC_NODE":"222.7502","TLE_LINE2":"2 47405  53.0536 222.7502 0000844  76.6984 283.4099 15.06406578132586","EPHEMERIS_TYPE":"0","SEMIMAJOR_AXIS":"6925.328","OBJECT_TYPE":"PAYLOAD","BSTAR":"0.00057123000000","SITE":"AFETR","CENTER_NAME":"EARTH","APOAPSIS":"547.778","OBJECT_NAME":"STARLINK-2130","ECCENTRICITY":"0.00008440","CLASSIFICATION_TYPE":"U","GP_ID":"233984793","OBJECT_ID":"2021-005BJ","INCLINATION":"53.0536","MEAN_MOTION_DOT":"0.00008239","PERIOD":"95.592"},{"ELEMENT_SET_NO":"999","ARG_OF_PERICENTER":"98.5245","PERIAPSIS":"546.481","REV_AT_EPOCH":"13298","TIME_SYSTEM":"UTC","TLE_LINE1":"1 47406U 21005BK  23166.31070218  .00000582  00000-0  57989-4 0  9996","REF_FRAME":"TEME","COUNTRY_CODE":"US","NORAD_CAT_ID":"47406","MEAN_MOTION_DDOT":"0.0000000000000","RCS_SIZE":"LARGE","DECAY_DATE":null,"LAUNCH_DATE":"2021-01-20","FILE":"3933820","EPOCH":"2023-06-15T07:27:24.668352","MEAN_ANOMALY":"261.5865","MEAN_ELEMENT_THEORY":"SGP4","CENTER_NAME":"EARTH","APOAPSIS":"547.956","SITE":"AFETR","BSTAR":"0.00005798900000","OBJECT_TYPE":"PAYLOAD","SEMIMAJOR_AXIS":"6925.353","EPHEMERIS_TYPE":"0","TLE_LINE2":"2 47406  53.0543 193.5171 0001065  98.5245 261.5865 15.06398422132981","RA_OF_ASC_NODE":"193.5171","MEAN_MOTION":"15.06398422","PERIOD":"95.592","MEAN_MOTION_DOT":"0.00000582","INCLINATION":"53.0543","OBJECT_ID":"2021-005BK","GP_ID":"233985044","CLASSIFICATION_TYPE":"U","ECCENTRICITY":"0.00010650","OBJECT_NAME":"STARLINK-2133"},{"COUNTRY_CODE":"US","RCS_SIZE":"LARGE","MEAN_MOTION_DDOT":"0.0000000000000","NORAD_CAT_ID":"47407","FILE":"3933820","EPOCH":"2023-06-15T10:49:06.474432","LAUNCH_DATE":"2021-01-20","DECAY_DATE":null,"MEAN_ELEMENT_THEORY":"SGP4","MEAN_ANOMALY":"245.5121","ARG_OF_PERICENTER":"114.6004","ELEMENT_SET_NO":"999","REV_AT_EPOCH":"13300","PERIAPSIS":"546.306","TLE_LINE1":"1 47407U 21005BL  23166.45076938 -.00000232  00000-0  33416-5 0  9990","TIME_SYSTEM":"UTC","REF_FRAME":"TEME","INCLINATION":"53.0529","MEAN_MOTION_DOT":"-0.00000232","PERIOD":"95.592","GP_ID":"233985795","OBJECT_ID":"2021-005BL","ECCENTRICITY":"0.00013030","OBJECT_NAME":"STARLINK-2134","CLASSIFICATION_TYPE":"U","SITE":"AFETR","APOAPSIS":"548.111","CENTER_NAME":"EARTH","SEMIMAJOR_AXIS":"6925.344","OBJECT_TYPE":"PAYLOAD","BSTAR":"0.00000334160000","MEAN_MOTION":"15.06401553","RA_OF_ASC_NODE":"192.8839","TLE_LINE2":"2 47407  53.0529 192.8839 0001303 114.6004 245.5121 15.06401553133008","EPHEMERIS_TYPE":"0"},{"COUNTRY_CODE":"US","NORAD_CAT_ID":"47408","MEAN_MOTION_DDOT":"0.0000000000000","RCS_SIZE":"LARGE","DECAY_DATE":null,"LAUNCH_DATE":"2021-01-20","EPOCH":"2023-06-15T08:31:06.319200","FILE":"3933820","MEAN_ANOMALY":"266.4058","MEAN_ELEMENT_THEORY":"SGP4","ARG_OF_PERICENTER":"93.7066","ELEMENT_SET_NO":"999","REV_AT_EPOCH":"13299","PERIAPSIS":"546.351","TIME_SYSTEM":"UTC","TLE_LINE1":"1 47408U 21005BM  23166.35493425 -.00002278  00000-0 -13401-3 0  9997","REF_FRAME":"TEME","PERIOD":"95.591","MEAN_MOTION_DOT":"-0.00002278","INCLINATION":"53.0543","OBJECT_ID":"2021-005BM","GP_ID":"233984543","CLASSIFICATION_TYPE":"U","OBJECT_NAME":"STARLINK-2135","ECCENTRICITY":"0.00011850","CENTER_NAME":"EARTH","APOAPSIS":"547.993","SITE":"AFETR","BSTAR":"-0.00013401000000","OBJECT_TYPE":"PAYLOAD","SEMIMAJOR_AXIS":"6925.307","TLE_LINE2":"2 47408  53.0543 193.3170 0001185  93.7066 266.4058 15.06413605132991","EPHEMERIS_TYPE":"0","MEAN_MOTION":"15.06413605","RA_OF_ASC_NODE":"193.3170"}];
